BEIDOU 3 (C01)          
1 36287U 10001A   22238.85466059 -.00000283  00000+0  00000+0 0  9990
2 36287   1.6320  45.9739 0001630 347.2947  29.9623  1.00271186 46224
BEIDOU 5 (C06)          
1 36828U 10036A   22238.79899175 -.00000152  00000+0  00000+0 0  9996
2 36828  54.2013 175.5856 0030497 189.7232   5.2713  1.00278569 44280
BEIDOU 6 (C04)          
1 37210U 10057A   22238.85187878 -.00000114  00000+0  00000+0 0  9990
2 37210   0.9770  54.3823 0006096 136.7018 250.7510  1.00273643 43340
BEIDOU 7 (C07)          
1 37256U 10068A   22238.68649201 -.00000155  00000+0  00000+0 0  9991
2 37256  50.0868 288.8070 0023976 201.5532 199.3140  1.00285150 42858
BEIDOU 8 (C08)          
1 37384U 11013A   22238.91335503 -.00000143  00000+0  00000+0 0  9994
2 37384  60.3948  53.5598 0023297 177.1690 180.5747  1.00288704 41722
BEIDOU 9 (C09)          
1 37763U 11038A   22238.81577012 -.00000105  00000+0  00000+0 0  9992
2 37763  54.4833 178.0835 0099263 228.3138 317.5894  1.00266258 40701
BEIDOU 10 (C10)         
1 37948U 11073A   22238.82466546 -.00000111  00000+0  00000+0 0  9993
2 37948  50.2032 288.4508 0086306 218.9022 220.6241  1.00278404 39462
BEIDOU 11 (C05)         
1 38091U 12008A   22238.93590985  .00000054  00000+0  00000+0 0  9994
2 38091   1.7165  69.3937 0011621 342.6155 318.8521  1.00268605 38532
BEIDOU 12 (C11)         
1 38250U 12018A   22238.48947455 -.00000093  00000+0  00000+0 0  9994
2 38250  56.6750 351.2480 0021923 249.3456 117.3875  1.86234285 70392
BEIDOU 13 (C12)         
1 38251U 12018B   22238.83674588 -.00000091  00000+0  00000+0 0  9996
2 38251  56.5903 350.5563 0012701 248.7964  34.9433  1.86234073 70396
BEIDOU 15 (C14)         
1 38775U 12050B   22237.82492970  .00000004  00000+0  00000+0 0  9997
2 38775  55.4390 109.3503 0013283 330.2966 191.0743  1.86231365 67750
BEIDOU 16 (C02)         
1 38953U 12059A   22238.08869134 -.00000180  00000+0  00000+0 0  9999
2 38953   2.1561  84.0848 0009198 302.5414  63.6748  1.00270028 35960
BEIDOU 17 (C31)         
1 40549U 15019A   22238.67683057 -.00000152  00000+0  00000+0 0  9994
2 40549  51.7644 311.9422 0038223 195.6900 166.4517  1.00282369 27146
BEIDOU 18 (C57)         
1 40748U 15037A   22238.57689961 -.00000093  00000+0  00000+0 0  9998
2 40748  55.8413 349.3883 0002846  62.4652 316.4060  1.86233354 48225
BEIDOU 19 (C58)         
1 40749U 15037B   22238.77235407 -.00000092  00000+0  00000+0 0  9992
2 40749  55.8447 349.3720 0002033 320.6463 323.4911  1.86232318 48211
BEIDOU 20 (C18)         
1 40938U 15053A   22238.86893056 -.00000083  00000+0  00000+0 0  9990
2 40938  51.3915 275.0630 0046387 199.3012 270.1242  1.00277290 25414
BEIDOU IGSO-6 (C13)     
1 41434U 16021A   22238.57171918 -.00000120  00000+0  00000+0 0  9994
2 41434  58.2025  52.1064 0044417 215.0244   9.2785  1.00269306 23537
BEIDOU-2 G7 (C03)       
1 41586U 16037A   22238.86785706 -.00000357  00000+0  00000+0 0  9999
2 41586   1.5251  67.3476 0007824 358.5485 332.0920  1.00269014 22840
BEIDOU-3 M1 (C19)       
1 43001U 17069A   22238.69563257  .00000013  00000+0  00000+0 0  9993
2 43001  55.5914 109.3306 0009052 298.0777 243.3905  1.86231747 32704
BEIDOU-3 M2 (C20)       
1 43002U 17069B   22238.78656843  .00000014  00000+0  00000+0 0  9999
2 43002  55.5916 109.3636 0007825 323.6520 321.7095  1.86231335 32692
BEIDOU-3 M3 (C27)       
1 43107U 18003A   22238.74058500 -.00000093  00000+0  00000+0 0  9994
2 43107  55.2927 350.2693 0004728  71.1162 349.6430  1.86232490 31462
BEIDOU-3 M4 (C28)       
1 43108U 18003B   22238.58361836 -.00000094  00000+0  00000+0 0  9997
2 43108  55.2865 350.2628 0002733 228.2431 130.7740  1.86230915 31452
BEIDOU-3 M5 (C21)       
1 43207U 18018A   22237.95592837  .00000006  00000+0  00000+0 0  9992
2 43207  55.5508 109.4673 0005718 352.8047   7.2820  1.86231668 30830
BEIDOU-3 M6 (C22)       
1 43208U 18018B   22238.02260433  .00000007  00000+0  00000+0 0  9997
2 43208  55.5495 109.4701 0007362 312.5985  47.4347  1.86231564 30834
BEIDOU-3 M7 (C29)       
1 43245U 18029A   22238.81350725 -.00000092  00000+0  00000+0 0  9996
2 43245  55.2029 348.0307 0000979 143.0642 237.0633  1.86232658 30001
BEIDOU-3 M8 (C30)       
1 43246U 18029B   22238.57150538 -.00000093  00000+0  10000-3 0  9996
2 43246  55.1998 348.0681 0003027   9.8718 254.5955  1.86232910 29988
BEIDOU IGSO-7 (C16)     
1 43539U 18057A   22238.79876093 -.00000158  00000+0  00000+0 0  9994
2 43539  55.0918 175.1086 0052628 228.8067 331.8551  1.00289241 15210
BEIDOU-3 M9 (C23)       
1 43581U 18062A   22238.66287799  .00000046  00000+0  00000+0 0  9997
2 43581  54.2592 229.6803 0005994 271.8140 265.1167  1.86231861 27733
BEIDOU-3 M10 (C24)      
1 43582U 18062B   22238.53657113  .00000046  00000+0  00000+0 0  9995
2 43582  54.2591 229.6745 0004832 336.3169 207.7836  1.86232271 27737
BEIDOU-3 M11 (C25)      
1 43602U 18067A   22238.46198380  .00000045  00000+0  00000+0 0  9990
2 43602  54.3422 228.2975 0006696 359.8374 175.5282  1.86231592 27228
BEIDOU-3 M12 (C26)      
1 43603U 18067B   22238.43374350  .00000045  00000+0  00000+0 0  9991
2 43603  54.3396 228.2658 0004087 340.7502  86.0413  1.86231524 27240
BEIDOU-3 M13 (C32)      
1 43622U 18072A   22238.71309097  .00000013  00000+0  00000+0 0  9990
2 43622  55.5177 108.9944 0005757 297.3410 345.8456  1.86231847 26759
BEIDOU-3 M14 (C33)      
1 43623U 18072B   22238.68938323  .00000013  00000+0  00000+0 0  9997
2 43623  55.5203 108.9875 0004207 328.8107  28.7205  1.86231872 26752
BEIDOU-3 M15 (C34)      
1 43647U 18078A   22238.84779063 -.00000092  00000+0  10000-3 0  9994
2 43647  55.0977 348.1822 0005198   9.7824 349.5728  1.86233133 26264
BEIDOU-3 M16 (C35)      
1 43648U 18078B   22237.38462250 -.00000100  00000+0  00000+0 0  9995
2 43648  55.0951 348.2380 0003699  32.2323 333.7878  1.86232247 26262
BEIDOU-3 G1 (C59)       
1 43683U 18085A   22238.85466059 -.00000282  00000+0  00000+0 0  9997
2 43683   0.9646 155.0374 0004511  20.5453 247.2158  1.00269566 14117
BEIDOU-3 M17 (C36)      
1 43706U 18093A   22238.60031496  .00000046  00000+0  00000+0 0  9995
2 43706  54.3426 229.5729 0011228 274.8728  84.9935  1.86232048 25621
BEIDOU-3 M18 (C37)      
1 43707U 18093B   22238.67303918  .00000046  00000+0  00000+0 0  9994
2 43707  54.3419 229.5611 0009441 295.2739 204.6269  1.86232205 25634
BEIDOU-3 IGSO-1 (C38)   
1 44204U 19023A   22238.73242145 -.00000180  00000+0  00000+0 0  9992
2 44204  56.6622  52.2155 0023014 188.0499 117.2133  1.00288768 12418
BEIDOU-2 G8             
1 44231U 19027A   22238.84873957 -.00000250  00000+0  00000+0 0  9997
2 44231   1.0264  78.5018 0005733 115.0415 231.6216  1.00272660 12124
BEIDOU-3 IGSO-2 (C39)   
1 44337U 19035A   22238.75968580 -.00000163  00000+0  00000+0 0  9993
2 44337  55.1236 171.0979 0025923 193.3646   3.3121  1.00283248 11754
BEIDOU-3 M23 (C45)      
1 44542U 19061A   22238.53648194  .00000047  00000+0  00000+0 0  9992
2 44542  54.5689 229.7308 0008752 326.5226  33.4174  1.86231512 19895
BEIDOU-3 M24 (C46)      
1 44543U 19061B   22238.68598666  .00000046  00000+0  00000+0 0  9996
2 44543  54.5656 229.6952 0006434 308.0470  63.5279  1.86231768 19898
BEIDOU-3 IGSO-3         
1 44709U 19073A   22238.61846323 -.00000140  00000+0  10000-3 0  9993
2 44709  57.1507 295.6581 0027592 179.9401 201.1827  1.00287494 10505
BEIDOU-3 M21            
1 44793U 19078A   22238.77269844 -.00000092  00000+0  10000-3 0  9991
2 44793  54.9471 348.1985 0005240  20.6355 242.1534  1.86232306 18752
BEIDOU-3 M22            
1 44794U 19078B   22237.43501650 -.00000100  00000+0  00000+0 0  9993
2 44794  54.9217 348.2343 0003275  21.1017 336.6186  1.86232750 18729
BEIDOU-3 M19            
1 44864U 19090A   22238.48964840  .00000011  00000+0  00000+0 0  9995
2 44864  55.4528 109.2092 0015974 272.8796 266.3403  1.86231969 18331
BEIDOU-3 M20            
1 44865U 19090B   22238.81861853  .00000014  00000+0  00000+0 0  9996
2 44865  55.4551 109.2299 0014367 287.8762 201.7595  1.86231939 18311
BEIDOU-3 G2             
1 45344U 20017A   22238.90113350 -.00000142  00000+0  00000+0 0  9995
2 45344   2.0277 355.5424 0004543 141.8587 242.1528  1.00271258  9322
BEIDOU-3 G3             
1 45807U 20040A   22238.91370383 -.00000356  00000+0  00000+0 0  9994
2 45807   1.2875 305.3119 0007584 328.7759 140.3793  1.00264859  8130
